COSMOS 2425 (716)       
1 29670U 06062A   18193.93314331 -.00000006  00000-0  10000-3 0  9998
2 29670  65.2657 291.6667 0020032 346.1972  37.4588  2.13105083 89862
COSMOS 2426 (717)       
1 29671U 06062B   18194.11697087 -.00000006  00000-0  10000-3 0  9992
2 29671  65.2848 291.7597 0019053 164.9711 215.2664  2.13102991 89873
COSMOS 2433 (720)       
1 32275U 07052A   18194.42786860 -.00000021  00000-0  10000-3 0  9995
2 32275  65.6988  52.4809 0001147 293.0217 301.4051  2.13104598 83387
COSMOS 2432 (719)       
1 32276U 07052B   18193.48483959 -.00000016  00000-0  10000-3 0  9998
2 32276  65.7115  52.5906 0011283 343.1122 199.7718  2.13103994 83369
COSMOS 2434 (721)       
1 32393U 07065A   18193.82528503 -.00000005  00000-0  00000+0 0  9998
2 32393  64.8808 290.6332 0004813 124.3230 255.8143  2.13103054 82087
COSMOS 2436 (723)       
1 32395U 07065C   18193.73987322 -.00000005  00000-0  10000-3 0  9993
2 32395  64.8909 290.6860 0013856   1.6922   3.5478  2.13104460 82013
COSMOS 2456 (730)       
1 36111U 09070A   18193.74643547  .00000052  00000-0  00000-0 0  9997
2 36111  64.1886 170.2275 0006619 300.9732 190.9949  2.13103044 66749
COSMOS 2457 (733)       
1 36112U 09070B   18193.64026014  .00000053  00000-0  00000-0 0  9992
2 36112  64.1704 170.1418 0005708 195.3630 341.9008  2.13101638 66749
COSMOS 2458 (734)       
1 36113U 09070C   18193.85529411  .00000051  00000-0  10000-3 0  9997
2 36113  64.1760 170.1454 0003036 316.1170  73.4101  2.13096774 66752
COSMOS 2459 (731)       
1 36400U 10007A   18193.89892831 -.00000018  00000-0  10000-3 0  9995
2 36400  65.6093  51.5578 0027422 355.1501  52.2244  2.13102256 65105
COSMOS 2461 (735)       
1 36401U 10007B   18193.52239707 -.00000017  00000-0  10000-3 0  9992
2 36401  65.5991  51.5439 0008651  64.3456 324.7646  2.13102311 65092
COSMOS 2460 (732)       
1 36402U 10007C   18193.63307127 -.00000017  00000-0  10000-3 0  9997
2 36402  65.5912  51.5077 0001979  56.1819  98.3951  2.13101638 65096
COSMOS 2464 (736)       
1 37139U 10041C   18193.57604038 -.00000006  00000-0  00000+0 0  9990
2 37139  64.4840 290.4339 0022613  13.6974  43.0307  2.13102781 61161
COSMOS 2471 (701K)      
1 37372U 11009A   18193.69167593 -.00000018  00000-0  00000+0 0  9990
2 37372  65.5891  51.4514 0006924 230.5879 113.4551  2.13107623 57369
COSMOS 2474 (742)       
1 37829U 11055A   18193.68091495  .00000054  00000-0  00000+0 0  9993
2 37829  64.5119 170.9584 0011036 253.9850  45.7487  2.13101957 52735
COSMOS 2476 (744)       
1 37867U 11064A   18193.74035216  .00000053  00000-0  00000+0 0  9990
2 37867  64.4918 171.0178 0020619 245.6740 145.7091  2.13102002 52090
COSMOS 2477 (745)       
1 37868U 11064B   18193.60830366  .00000055  00000-0  00000+0 0  9997
2 37868  64.5002 171.0708 0018399 247.2652 221.6933  2.13101860 52042
COSMOS 2475 (743)       
1 37869U 11064C   18193.67919826  .00000054  00000-0  00000-0 0  9994
2 37869  64.5077 171.0631 0023081 268.5301 211.5536  2.13102183 52058
COSMOS 2485 (747)       
1 39155U 13019A   18194.48470664  .00000049  00000-0  00000+0 0  9991
2 39155  64.6611 171.1078 0020939 241.0478  46.2445  2.13102053 40571
COSMOS 2492 (754)       
1 39620U 14012A   18194.09132194 -.00000020  00000-0  10000-3 0  9997
2 39620  65.4811  51.3752 0014255 336.7839  43.5277  2.13103531 33526
COSMOS 2500 (755)       
1 40001U 14032A   18194.43557462 -.00000022  00000-0  00000+0 0  9998
2 40001  65.4224  51.3293 0004574 193.2685 313.3593  2.13102872 31745
COSMOS 2501 (702K)      
1 40315U 14075A   18194.05442063 -.00000007  00000-0  00000+0 0  9994
2 40315  64.2088 291.6217 0016394 205.3554 170.2100  2.13098757 28146
COSMOS 2514 (751)       
1 41330U 16008A   18193.65561346 -.00000019  00000-0  00000+0 0  9994
2 41330  65.2239  51.4036 0007759 212.0948 237.1055  2.13103283 18895
COSMOS 2516 (753)       
1 41554U 16032A   18194.48342068 -.00000007  00000-0  00000+0 0  9996
2 41554  64.4295 291.4777 0013002 214.0564  41.2705  2.13101739 16515
COSMOS 2522 (752)       
1 42939U 17055A   18194.43828700 -.00000006  00000-0  00000+0 0  9996
2 42939  64.6593 291.4545 0007531 236.6609 210.4686  2.13101917  6277
